DIRECTV 11              
1 32729U 08013A   26065.20534845 -.00000131  00000+0  00000+0 0  9999
2 32729   0.0180 332.0370 0000293   7.6540 158.9621  1.00271804 44562
GALAXY 18 (G-18)        
1 32951U 08024A   26065.27199542  .00000000  00000+0  00000+0 0  9990
2 32951   0.0226 155.7057 0003248 216.9145 126.3102  1.00271679 44823
INTELSAT 25 (IS-25)     
1 33153U 08034A   26065.20124630 -.00000228  00000+0  00000+0 0  9998
2 33153   2.4419  81.5969 0003733 237.3509 245.9290  1.00272625 64668
GALAXY 19 (G-19)        
1 33376U 08045A   26065.18377969 -.00000144  00000+0  00000+0 0  9996
2 33376   0.0445 261.1257 0002791  86.4997 145.4309  1.00271475 63870
FM-5                    
1 35493U 09034A   26064.56613463 -.00000207  00000+0  00000+0 0  9990
2 35493   0.0380 271.4834 0000871 304.9900  64.4559  1.00272163 45607
INTELSAT 14 (IS-14)     
1 36097U 09064A   26064.85957594 -.00000280  00000+0  00000+0 0  9993
2 36097   0.0248  92.5236 0002374 252.0947  83.4189  1.00274449 59562
INTELSAT 15 (IS-15)     
1 36106U 09067A   26065.09926800  .00000000  00000+0  00000+0 0  9999
2 36106   0.0187 168.6392 0002373 190.7694 285.3100  1.00270090 40192
DIRECTV 12              
1 36131U 09075A   26065.18377969 -.00000109  00000+0  00000+0 0  9993
2 36131   0.0195 337.1647 0000361  42.2140 107.9700  1.00272270 45526
INTELSAT 16 (IS-16)     
1 36397U 10006A   26065.17266987 -.00000250  00000+0  00000+0 0  9996
2 36397   0.0204 112.5804 0002018 240.2762 156.9897  1.00272464 58623
XM-5                    
1 37185U 10053A   26064.63174160 -.00000030  00000+0  00000+0 0  9991
2 37185   0.0658 274.3985 0003484 253.1594 108.0167  1.00271669 56445
INTELSAT 17 (IS-17)     
1 37238U 10065B   26065.22267013 -.00000007  00000+0  00000+0 0  9993
2 37238   0.0169 183.5973 0002491 166.8887 319.6073  1.00272916 52214
INTELSAT 28 (IS-28)     
1 37392U 11016A   26065.18651661 -.00000230  00000+0  00000+0 0  9990
2 37392   1.5399  83.9610 0004626 261.6592 213.7252  1.00272064 52257
INTELSAT 18 (IS-18)     
1 37834U 11056A   26065.26072870  .00000048  00000+0  00000+0 0  9999
2 37834   0.0379 265.9124 0001921  78.0185  93.9005  1.00274400 52772
INTELSAT 22 (IS-22)     
1 38098U 12011A   26065.09666799 -.00000064  00000+0  00000+0 0  9993
2 38098   0.0028 173.3912 0001668 192.4141 264.9179  1.00271310  6154
INTELSAT 19 (IS-19)     
1 38356U 12030A   26064.57475457  .00000000  00000+0  00000+0 0  9991
2 38356   0.0248 145.0136 0003028 212.2815 178.9261  1.00265112 49415
INTELSAT 20 (IS-20)     
1 38740U 12043A   26064.55705715 -.00000032  00000+0  00000+0 0  9999
2 38740   0.0190 140.1706 0002357  26.1370 266.0165  1.00271907 49702
INTELSAT 21 (IS-21)     
1 38749U 12045A   26064.35777104 -.00000293  00000+0  00000+0 0  9998
2 38749   0.0301 254.8510 0001780  99.0784 239.9498  1.00270471 49486
